{
  "type": "FeatureCollection",
  "features": [
    {
      "type": "Feature",
      "properties": {
        "join_key": "BATARAGURU-RW001-RT001",
        "NAMA_KELURAHAN": "BATARAGURU",
        "NAMA_RW": "RW 001",
        "NAMA_RT": "RT 001"
      },
      "geometry": {
        "type": "Polygon",
        "coordinates": [
          [
            [122.610734846, -5.46074737099997],
            [122.61092127, -5.46074749],
            [122.61152938, -5.46072955999996],
            [122.61164313, -5.46068682999994],
            [122.61171837, -5.46065190999997],
            [122.61174258, -5.46063824],
            [122.61174664, -5.46066208499997],
            [122.611976202, -5.46047532299997],
            [122.611976296, -5.46047523399994],
            [122.612043372, -5.46079197999997],
            [122.61187065, -5.46114222099993],
            [122.611592624, -5.46127254499994],
            [122.61157581, -5.46131271999998],
            [122.611563369, -5.46134244999996],
            [122.611669141, -5.46160281199998],
            [122.61160942, -5.46186467099994],
            [122.61160677, -5.461876289],
            [122.611319179, -5.46186720699995],
            [122.61118433, -5.46188967999998],
            [122.61102703, -5.46193424999996],
            [122.61089332, -5.46196570999996],
            [122.61086297, -5.46206565999995],
            [122.61085264, -5.46207025999996],
            [122.61075301, -5.46215636999995],
            [122.61060909, -5.46221572999997],
            [122.61057876, -5.46222264999994],
            [122.610650802, -5.46194585699994],
            [122.610641207, -5.46184030499996],
            [122.610684387, -5.46153804199997],
            [122.610741961, -5.46154283999996],
            [122.610756355, -5.46145647899993],
            [122.610703579, -5.46143248999994],
            [122.61072277, -5.46126936299993],
            [122.610804333, -5.46125976799993],
            [122.610804333, -5.46118779999995],
            [122.610698781, -5.46113502399994],
            [122.610698781, -5.46109664199998],
            [122.61072277, -5.46107744999995],
            [122.610734846, -5.46074737099997]
          ]
        ]
      }
    },
    {
      "type": "Feature",
      "properties": {
        "join_key": "BATARAGURU-RW001-RT002",
        "NAMA_KELURAHAN": "BATARAGURU",
        "NAMA_RW": "RW 001",
        "NAMA_RT": "RT 002"
      },
      "geometry": {
        "type": "Polygon",
        "coordinates": [
          [
            [122.610361338, -5.46074713099996],
            [122.61040438, -5.46074715999994],
            [122.610734846, -5.46074737099997],
            [122.61072277, -5.46107744999995],
            [122.610698781, -5.46109664199998],
            [122.610698781, -5.46113502399994],
            [122.610804333, -5.46118779999995],
            [122.610804333, -5.46125976799993],
            [122.61072277, -5.46126936299993],
            [122.610703579, -5.46143248999994],
            [122.610756355, -5.46145647899993],
            [122.610741961, -5.46154283999996],
            [122.610684387, -5.46153804199997],
            [122.610641207, -5.46184030499996],
            [122.610650802, -5.46194585699994],
            [122.61057876, -5.46222264999994],
            [122.61035458, -5.46227379999993],
            [122.610342646, -5.46227652199997],
            [122.610331747, -5.4622697099999],
            [122.610188675, -5.46222951399994],
            [122.610139951, -5.46221582499993],
            [122.610082427, -5.46221086199995],
            [122.609873361, -5.46219282499993],
            [122.610173419, -5.46175874199997],
            [122.610274173, -5.46158362099994],
            [122.610275542, -5.46157734099996],
            [122.610314955, -5.46139650599997],
            [122.610361338, -5.46074713099996]
          ]
        ]
      }
    },
    {
      "type": "Feature",
      "properties": {
        "join_key": "BATARAGURU-RW001-RT003",
        "NAMA_KELURAHAN": "BATARAGURU",
        "NAMA_RW": "RW 001",
        "NAMA_RT": "RT 003"
      },
      "geometry": {
        "type": "Polygon",
        "coordinates": [
          [
            [122.609011723, -5.46068963599993],
            [122.609016987, -5.46068962799996],
            [122.60905921, -5.46068955999993],
            [122.60906631, -5.46074169999997],
            [122.60949473, -5.46074198999997],
            [122.61012396, -5.46074663],
            [122.61019428, -5.46074701999995],
            [122.610361338, -5.46074713099996],
            [122.610314955, -5.46139650599997],
            [122.610275542, -5.46157734099996],
            [122.610094254, -5.46154523799993],
            [122.609626466, -5.46149486099995],
            [122.609628865, -5.46136771899995],
            [122.608975885, -5.46132633299995],
            [122.608981158, -5.46131974099995],
            [122.609011723, -5.46068963599993]
          ]
        ]
      }
    },
    {
      "type": "Feature",
      "properties": {
        "join_key": "BATARAGURU-RW002-RT001",
        "NAMA_KELURAHAN": "BATARAGURU",
        "NAMA_RW": "RW 002",
        "NAMA_RT": "RT 001"
      },
      "geometry": {
        "type": "Polygon",
        "coordinates": [
          [
            [122.607518459, -5.46069177899994],
            [122.6075212, -5.46069190399992],
            [122.60752398, -5.46069202999996],
            [122.60752766, -5.46069201999996],
            [122.6075277, -5.46069201999996],
            [122.609011723, -5.46068963599993],
            [122.608981158, -5.46131974099995],
            [122.608975885, -5.46132633299995],
            [122.608971563, -5.46133173499993],
            [122.60896569, -5.46151594299994],
            [122.60751663, -5.46138482599997],
            [122.607522619, -5.46070321999997],
            [122.607518459, -5.46069177899994]
          ]
        ]
      }
    },
    {
      "type": "Feature",
      "properties": {
        "join_key": "BATARAGURU-RW002-RT002",
        "NAMA_KELURAHAN": "BATARAGURU",
        "NAMA_RW": "RW 002",
        "NAMA_RT": "RT 002"
      },
      "geometry": {
        "type": "Polygon",
        "coordinates": [
          [
            [122.610275542, -5.46157734099996],
            [122.610274173, -5.46158362099994],
            [122.610173419, -5.46175874199997],
            [122.609873361, -5.46219282499993],
            [122.608957169, -5.46211378099997],
            [122.608946659, -5.46211279999995],
            [122.608946339, -5.46211276999998],
            [122.608946885, -5.462105707],
            [122.60896569, -5.46151594299994],
            [122.608971563, -5.46133173499993],
            [122.608975885, -5.46132633299995],
            [122.609628865, -5.46136771899995],
            [122.609626466, -5.46149486099995],
            [122.610094254, -5.46154523799993],
            [122.610275542, -5.46157734099996]
          ]
        ]
      }
    },
    {
      "type": "Feature",
      "properties": {
        "join_key": "BATARAGURU-RW002-RT003",
        "NAMA_KELURAHAN": "BATARAGURU",
        "NAMA_RW": "RW 002",
        "NAMA_RT": "RT 003"
      },
      "geometry": {
        "type": "Polygon",
        "coordinates": [
          [
            [122.60896569, -5.46151594299994],
            [122.608946885, -5.462105707],
            [122.608946339, -5.46211276999998],
            [122.60841559484179, -5.462063436086305],
            [122.60781798886723, -5.462007044987919],
            [122.607517821, -5.46197944199997],
            [122.607511399, -5.46198008799997],
            [122.607516167, -5.46143746999997],
            [122.60751663, -5.46138482599997],
            [122.60896569, -5.46151594299994]
          ]
        ]
      }
    },
    {
      "type": "Feature",
      "properties": {
        "join_key": "BATARAGURU-RW003-RT001",
        "NAMA_KELURAHAN": "BATARAGURU",
        "NAMA_RW": "RW 003",
        "NAMA_RT": "RT 001"
      },
      "geometry": {
        "type": "Polygon",
        "coordinates": [
          [
            [122.609873361, -5.46219282499993],
            [122.610082427, -5.46221086199995],
            [122.610137435, -5.46246642099993],
            [122.610177421, -5.46248308199996],
            [122.610177667, -5.46248614399997],
            [122.610271774, -5.46253958799998],
            [122.61032455, -5.46263794399994],
            [122.610328149, -5.46275069299998],
            [122.610359334, -5.46284065199995],
            [122.610168653, -5.46309966999996],
            [122.61016865, -5.46310441],
            [122.610053188, -5.46327927399996],
            [122.61005086, -5.46328279999994],
            [122.610048562, -5.46327977399995],
            [122.60996822, -5.46317400899994],
            [122.60981598, -5.46317170199996],
            [122.609842369, -5.46273749899996],
            [122.609360187, -5.46268712099994],
            [122.609355389, -5.46282625799995],
            [122.60889272, -5.46280584699997],
            [122.608946339, -5.46211276999998],
            [122.608946659, -5.46211279999995],
            [122.608957169, -5.46211378099997],
            [122.609873361, -5.46219282499993]
          ]
        ]
      }
    },
    {
      "type": "Feature",
      "properties": {
        "join_key": "BATARAGURU-RW003-RT002",
        "NAMA_KELURAHAN": "BATARAGURU",
        "NAMA_RW": "RW 003",
        "NAMA_RT": "RT 002"
      },
      "geometry": {
        "type": "Polygon",
        "coordinates": [
          [
            [122.609795739, -5.46473736999998],
            [122.609791991, -5.46474299099998],
            [122.609652854, -5.46481975599994],
            [122.609585685, -5.46482455399996],
            [122.60950892, -5.46479096899998],
            [122.609451346, -5.46469501199994],
            [122.609456143, -5.46455587499997],
            [122.609504122, -5.46440234499994],
            [122.609424472, -5.46428929299998],
            [122.609388724, -5.46425581499995],
            [122.609276225, -5.46415045899996],
            [122.608798841, -5.46420083599996],
            [122.60874946, -5.46422758399997],
            [122.608820431, -5.46374024499994],
            [122.608878235, -5.46299307199997],
            [122.60889272, -5.46280584699997],
            [122.609355389, -5.46282625799995],
            [122.609360187, -5.46268712099994],
            [122.609842369, -5.46273749899996],
            [122.60981598, -5.46317170199996],
            [122.60996822, -5.46317400899994],
            [122.610048562, -5.46327977399995],
            [122.610051074, -5.463303642],
            [122.609854363, -5.46395134899997],
            [122.609748811, -5.46420083599996],
            [122.609796789, -5.46438315299997],
            [122.609940724, -5.46463263999993],
            [122.609830374, -5.46468541699995],
            [122.609795739, -5.46473736999998]
          ]
        ]
      }
    },
    {
      "type": "Feature",
      "properties": {
        "join_key": "BATARAGURU-RW003-RT003",
        "NAMA_KELURAHAN": "BATARAGURU",
        "NAMA_RW": "RW 003",
        "NAMA_RT": "RT 003"
      },
      "geometry": {
        "type": "Polygon",
        "coordinates": [
          [
            [122.608946339, -5.46211276999998],
            [122.60889272, -5.46280584699997],
            [122.608878235, -5.46299307199997],
            [122.607971216, -5.46298218799995],
            [122.607485234, -5.46292143999995],
            [122.607510222, -5.46198020599996],
            [122.607511399, -5.46198008799997],
            [122.607517821, -5.46197944199997],
            [122.60781798886723, -5.462007044987919],
            [122.60841559484179, -5.462063436086305],
            [122.608946339, -5.46211276999998]
          ]
        ]
      }
    },
    {
      "type": "Feature",
      "properties": {
        "join_key": "BATARAGURU-RW003-RT004",
        "NAMA_KELURAHAN": "BATARAGURU",
        "NAMA_RW": "RW 003",
        "NAMA_RT": "RT 004"
      },
      "geometry": {
        "type": "Polygon",
        "coordinates": [
          [
            [122.607424552, -5.46420153099997],
            [122.607424671, -5.46419983199996],
            [122.607467444, -5.46359151199994],
            [122.607468133, -5.46356556699993],
            [122.607485234, -5.46292143999995],
            [122.607971216, -5.46298218799995],
            [122.608878235, -5.46299307199997],
            [122.608820431, -5.46374024499994],
            [122.60874946, -5.46422758399997],
            [122.608748464, -5.46423442099998],
            [122.608364638, -5.46442633399996],
            [122.607424552, -5.46420153099997]
          ]
        ]
      }
    },
    {
      "type": "Feature",
      "properties": {
        "join_key": "BATARAGURU-RW004-RT001",
        "NAMA_KELURAHAN": "BATARAGURU",
        "NAMA_RW": "RW 004",
        "NAMA_RT": "RT 001"
      },
      "geometry": {
        "type": "Polygon",
        "coordinates": [
          [
            [122.606791241, -5.46205457199995],
            [122.606887547, -5.46154792099998],
            [122.607002071, -5.46127160899996],
            [122.60718917, -5.46134852799997],
            [122.607196367, -5.46140370299996],
            [122.607516167, -5.46143746999997],
            [122.607511399, -5.46198008799997],
            [122.607510222, -5.46198020599996],
            [122.606802945, -5.46205140899997],
            [122.606791241, -5.46205457199995]
          ]
        ]
      }
    },
    {
      "type": "Feature",
      "properties": {
        "join_key": "BATARAGURU-RW004-RT002",
        "NAMA_KELURAHAN": "BATARAGURU",
        "NAMA_RW": "RW 004",
        "NAMA_RT": "RT 002"
      },
      "geometry": {
        "type": "Polygon",
        "coordinates": [
          [
            [122.607002071, -5.46127160899996],
            [122.607030842, -5.46120219399996],
            [122.60696847, -5.46100068499995],
            [122.606842323, -5.46087149799996],
            [122.606948872, -5.46080087199994],
            [122.60718923, -5.46072876999995],
            [122.60719144, -5.46072609000002],
            [122.60745945, -5.46069352999996],
            [122.60746277, -5.46068924999998],
            [122.607518459, -5.46069177899994],
            [122.607522619, -5.46070321999997],
            [122.60751663, -5.46138482599997],
            [122.607516167, -5.46143746999997],
            [122.607196367, -5.46140370299996],
            [122.60718917, -5.46134852799997],
            [122.607002071, -5.46127160899996]
          ]
        ]
      }
    },
    {
      "type": "Feature",
      "properties": {
        "join_key": "BATARAGURU-RW004-RT003",
        "NAMA_KELURAHAN": "BATARAGURU",
        "NAMA_RW": "RW 004",
        "NAMA_RT": "RT 003"
      },
      "geometry": {
        "type": "Polygon",
        "coordinates": [
          [
            [122.606887547, -5.46154792099998],
            [122.60687971, -5.46156682899993],
            [122.606866099, -5.46157622699997],
            [122.606644616, -5.46136052199995],
            [122.606668606, -5.46131494299993],
            [122.606475988, -5.46112828199995],
            [122.606575048, -5.46104866299993],
            [122.606842323, -5.46087149799996],
            [122.60696847, -5.46100068499995],
            [122.607030842, -5.46120219399996],
            [122.607002071, -5.46127160899996],
            [122.606887547, -5.46154792099998]
          ]
        ]
      }
    },
    {
      "type": "Feature",
      "properties": {
        "join_key": "BATARAGURU-RW005-RT001",
        "NAMA_KELURAHAN": "BATARAGURU",
        "NAMA_RW": "RW 005",
        "NAMA_RT": "RT 001"
      },
      "geometry": {
        "type": "Polygon",
        "coordinates": [
          [
            [122.606092127, -5.46149854799995],
            [122.606104861, -5.46148526599995],
            [122.606318364, -5.46125497],
            [122.606475988, -5.46112828199995],
            [122.606668606, -5.46131494299993],
            [122.606644616, -5.46136052199995],
            [122.606866099, -5.46157622699997],
            [122.606577447, -5.46177553399997],
            [122.606397528, -5.46185949599994],
            [122.606212812, -5.46158362099994],
            [122.606092127, -5.46149854799995]
          ]
        ]
      }
    },
    {
      "type": "Feature",
      "properties": {
        "join_key": "BATARAGURU-RW005-RT002",
        "NAMA_KELURAHAN": "BATARAGURU",
        "NAMA_RW": "RW 005",
        "NAMA_RT": "RT 002"
      },
      "geometry": {
        "type": "Polygon",
        "coordinates": [
          [
            [122.60646651, -5.46049057999996],
            [122.60664176, -5.46059349999996],
            [122.60682514, -5.46066837999998],
            [122.60695563, -5.460751],
            [122.6069504, -5.46079180999993],
            [122.60694411, -5.46080229999995],
            [122.606948872, -5.46080087199994],
            [122.606842323, -5.46087149799996],
            [122.606575048, -5.46104866299993],
            [122.606475988, -5.46112828199995],
            [122.606318364, -5.46125497],
            [122.606104861, -5.46148526599995],
            [122.606092127, -5.46149854799995],
            [122.60587761, -5.46172231199997],
            [122.60588084, -5.46170385999994],
            [122.60589132, -5.46164053999996],
            [122.60590208, -5.46158626999994],
            [122.6059134, -5.461532],
            [122.60592472, -5.46147772999996],
            [122.60593575, -5.46142345999993],
            [122.60594679, -5.46136918999997],
            [122.60595726, -5.46132396999998],
            [122.60596829, -5.46127873999995],
            [122.60597931, -5.46124256],
            [122.60598823, -5.46120812999993],
            [122.605991741, -5.46119536],
            [122.60600363, -5.46115211999997],
            [122.60601748, -5.46111593999996],
            [122.60603246, -5.46107071999995],
            [122.60604885, -5.46102549999995],
            [122.60606804, -5.46097625999995],
            [122.60627036, -5.46073456999995],
            [122.60633501, -5.46065414],
            [122.60646651, -5.46049057999996]
          ]
        ]
      }
    },
    {
      "type": "Feature",
      "properties": {
        "join_key": "BATARAGURU-RW005-RT003",
        "NAMA_KELURAHAN": "BATARAGURU",
        "NAMA_RW": "RW 005",
        "NAMA_RT": "RT 003"
      },
      "geometry": {
        "type": "Polygon",
        "coordinates": [
          [
            [122.60587761, -5.46172231199997],
            [122.606092127, -5.46149854799995],
            [122.606212812, -5.46158362099994],
            [122.606397528, -5.46185949599994],
            [122.606577447, -5.46177553399997],
            [122.606866099, -5.46157622699997],
            [122.60687971, -5.46156682899993],
            [122.606887547, -5.46154792099998],
            [122.606791241, -5.46205457199995],
            [122.606779649, -5.46205770499995],
            [122.606447906, -5.46214736599995],
            [122.606011303, -5.46222892899993],
            [122.605856346, -5.46227937999993],
            [122.6058534, -5.46225565999993],
            [122.60584919, -5.46221947999994],
            [122.60584527, -5.46218328999993],
            [122.60584164, -5.46213963],
            [122.60583801, -5.46208396999998],
            [122.60583719, -5.46202949999998],
            [122.60584061, -5.46196616999993],
            [122.60584884, -5.46189380999994],
            [122.60585507, -5.4618576299999],
            [122.60586243, -5.46181239999995],
            [122.60587047, -5.46176309999992],
            [122.60587761, -5.46172231199997]
          ]
        ]
      }
    },
    {
      "type": "Feature",
      "properties": {
        "join_key": "BATARAGURU-RW006-RT001",
        "NAMA_KELURAHAN": "BATARAGURU",
        "NAMA_RW": "RW 006",
        "NAMA_RT": "RT 001"
      },
      "geometry": {
        "type": "Polygon",
        "coordinates": [
          [
            [122.607485234, -5.46292143999995],
            [122.607468133, -5.46356556699993],
            [122.607371487, -5.46356272499996],
            [122.607050033, -5.46356272499996],
            [122.606878964, -5.46358173199997],
            [122.60679095, -5.46335641799993],
            [122.606771759, -5.46312612299994],
            [122.606781355, -5.46285744399996],
            [122.606789575, -5.46281086499995],
            [122.606838928, -5.46253119199997],
            [122.606800546, -5.46239205499996],
            [122.606779649, -5.46205770499995],
            [122.606791241, -5.46205457199995],
            [122.606802945, -5.46205140899997],
            [122.607510222, -5.46198020599996],
            [122.607485234, -5.46292143999995]
          ]
        ]
      }
    },
    {
      "type": "Feature",
      "properties": {
        "join_key": "BATARAGURU-RW006-RT002",
        "NAMA_KELURAHAN": "BATARAGURU",
        "NAMA_RW": "RW 006",
        "NAMA_RT": "RT 002"
      },
      "geometry": {
        "type": "Polygon",
        "coordinates": [
          [
            [122.606789575, -5.46281086499995],
            [122.606220009, -5.46261275499994],
            [122.605891841, -5.46256226799995],
            [122.60588876, -5.46253611999992],
            [122.60588371, -5.46249992999998],
            [122.60587838, -5.46245469999997],
            [122.6058737, -5.46241498999997],
            [122.60586799, -5.46237327999995],
            [122.60586195, -5.46232064999998],
            [122.60585792, -5.46229204999997],
            [122.605856346, -5.46227937999993],
            [122.606011303, -5.46222892899993],
            [122.606447906, -5.46214736599995],
            [122.606779649, -5.46205770499995],
            [122.606800546, -5.46239205499996],
            [122.606838928, -5.46253119199997],
            [122.606789575, -5.46281086499995]
          ]
        ]
      }
    },
    {
      "type": "Feature",
      "properties": {
        "join_key": "BATARAGURU-RW006-RT003",
        "NAMA_KELURAHAN": "BATARAGURU",
        "NAMA_RW": "RW 006",
        "NAMA_RT": "RT 003"
      },
      "geometry": {
        "type": "Polygon",
        "coordinates": [
          [
            [122.606789575, -5.46281086499995],
            [122.606781355, -5.46285744399996],
            [122.606771759, -5.46312612299994],
            [122.60679095, -5.46335641799993],
            [122.606878964, -5.46358173199997],
            [122.606877311, -5.46358191599996],
            [122.606579846, -5.463625097],
            [122.606426315, -5.46362989499994],
            [122.606058336, -5.46353688899995],
            [122.60603005, -5.46345893999995],
            [122.60601965, -5.46340464999998],
            [122.60601375, -5.4633775099999],
            [122.60600812, -5.46335036999994],
            [122.60600222, -5.46331417999995],
            [122.60599603, -5.46328702999994],
            [122.60599013, -5.46325988999996],
            [122.605986761, -5.46324019099995],
            [122.60598394, -5.46322369999996],
            [122.60597776, -5.46318750999996],
            [122.60597076, -5.46314819],
            [122.60596515, -5.46311532999995],
            [122.60595893, -5.46307893999995],
            [122.60595247, -5.46303370999993],
            [122.60594629, -5.46299751999993],
            [122.60594011, -5.46295227999998],
            [122.60593422, -5.46290704999996],
            [122.60592804, -5.46286180999995],
            [122.60592215, -5.46281657999998],
            [122.60591625, -5.46277133999996],
            [122.60591065, -5.46271705999993],
            [122.60590503, -5.46267183],
            [122.60590043, -5.46263224999996],
            [122.60589424, -5.46258255999991],
            [122.60589409, -5.46258135999994],
            [122.605891841, -5.46256226799995],
            [122.606220009, -5.46261275499994],
            [122.606789575, -5.46281086499995]
          ]
        ]
      }
    },
    {
      "type": "Feature",
      "properties": {
        "join_key": "BATARAGURU-RW006-RT004",
        "NAMA_KELURAHAN": "BATARAGURU",
        "NAMA_RW": "RW 006",
        "NAMA_RT": "RT 004"
      },
      "geometry": {
        "type": "Polygon",
        "coordinates": [
          [
            [122.607468133, -5.46356556699993],
            [122.607467444, -5.46359151199994],
            [122.607424671, -5.46419983199996],
            [122.606954076, -5.46406649699998],
            [122.606810142, -5.46410967699995],
            [122.606647015, -5.46412886899998],
            [122.606536665, -5.46410487899995],
            [122.606149898, -5.46390308799993],
            [122.60614773, -5.46389315999996],
            [122.60610709, -5.46370705999994],
            [122.60608706, -5.46361604],
            [122.60606989, -5.46356872999996],
            [122.606058336, -5.46353688899995],
            [122.606426315, -5.46362989499994],
            [122.606579846, -5.463625097],
            [122.606877311, -5.46358191599996],
            [122.606878964, -5.46358173199997],
            [122.607050033, -5.46356272499996],
            [122.607371487, -5.46356272499996],
            [122.607468133, -5.46356556699993]
          ]
        ]
      }
    },
    {
      "type": "Feature",
      "properties": {
        "join_key": "BATARAGURU-RW007-RT001",
        "NAMA_KELURAHAN": "BATARAGURU",
        "NAMA_RW": "RW 007",
        "NAMA_RT": "RT 001"
      },
      "geometry": {
        "type": "Polygon",
        "coordinates": [
          [
            [122.607209019, -5.46473215500001],
            [122.607203618, -5.46473039599994],
            [122.606594239, -5.46453188599998],
            [122.606282381, -5.46447910999996],
            [122.606038603, -5.46435722099995],
            [122.60604408, -5.46435220999998],
            [122.60615317, -5.46425238999996],
            [122.60615353, -5.46403707999997],
            [122.60615339, -5.46391907999992],
            [122.606149898, -5.46390308799993],
            [122.606536665, -5.46410487899995],
            [122.606647015, -5.46412886899998],
            [122.606810142, -5.46410967699995],
            [122.606954076, -5.46406649699998],
            [122.607424671, -5.46419983199996],
            [122.607424552, -5.46420153099997],
            [122.607424263, -5.46420563399994],
            [122.607209019, -5.46473215500001]
          ]
        ]
      }
    },
    {
      "type": "Feature",
      "properties": {
        "join_key": "BATARAGURU-RW007-RT002",
        "NAMA_KELURAHAN": "BATARAGURU",
        "NAMA_RW": "RW 007",
        "NAMA_RT": "RT 002"
      },
      "geometry": {
        "type": "Polygon",
        "coordinates": [
          [
            [122.606038603, -5.46435722099995],
            [122.606282381, -5.46447910999996],
            [122.606594239, -5.46453188599998],
            [122.607203618, -5.46473039599994],
            [122.606997257, -5.465184391],
            [122.606958874, -5.46541468599997],
            [122.606944716, -5.46582527599997],
            [122.606944481, -5.46583209699997],
            [122.606906098, -5.46656616499998],
            [122.606887993, -5.46672088299994],
            [122.606853322, -5.46701716099994],
            [122.606656611, -5.46741537999997],
            [122.606472856, -5.46751209299994],
            [122.60646619, -5.46716526999995],
            [122.60642948, -5.46692144999997],
            [122.60634821, -5.46662518999996],
            [122.60623023, -5.46641020999995],
            [122.60608341, -5.46628436999994],
            [122.60590514, -5.46619784999996],
            [122.6056954, -5.46617687000001],
            [122.605505054, -5.46617247699993],
            [122.605557909, -5.46570735399996],
            [122.605688489, -5.46561159499993],
            [122.606124052, -5.46545786699994],
            [122.606200817, -5.46547225999996],
            [122.606503081, -5.46484854299996],
            [122.606004107, -5.46466622499998],
            [122.60595927, -5.46442981199995],
            [122.60596481, -5.46442474000001],
            [122.606038603, -5.46435722099995]
          ]
        ]
      }
    },
    {
      "type": "Feature",
      "properties": {
        "join_key": "BATARAGURU-RW007-RT003",
        "NAMA_KELURAHAN": "BATARAGURU",
        "NAMA_RW": "RW 007",
        "NAMA_RT": "RT 003"
      },
      "geometry": {
        "type": "Polygon",
        "coordinates": [
          [
            [122.60874946, -5.46422758399997],
            [122.608798841, -5.46420083599996],
            [122.609276225, -5.46415045899996],
            [122.609388724, -5.46425581499995],
            [122.60922776, -5.46428341000001],
            [122.609160489, -5.46431121399996],
            [122.609340996, -5.46472379899996],
            [122.609062722, -5.46483894699998],
            [122.608755661, -5.464862936],
            [122.608698087, -5.46477657499997],
            [122.608515769, -5.46479096899998],
            [122.608518644, -5.46534299299998],
            [122.608364638, -5.46532832499997],
            [122.608004801, -5.46513161499997],
            [122.607990407, -5.46506924299996],
            [122.607227553, -5.46473819299996],
            [122.607209019, -5.46473215500001],
            [122.607424263, -5.46420563399994],
            [122.607424552, -5.46420153099997],
            [122.608364638, -5.46442633399996],
            [122.608748464, -5.46423442099998],
            [122.60874946, -5.46422758399997]
          ]
        ]
      }
    },
    {
      "type": "Feature",
      "properties": {
        "join_key": "BATARAGURU-RW007-RT004",
        "NAMA_KELURAHAN": "BATARAGURU",
        "NAMA_RW": "RW 007",
        "NAMA_RT": "RT 004"
      },
      "geometry": {
        "type": "Polygon",
        "coordinates": [
          [
            [122.608518644, -5.46534299299998],
            [122.608519935, -5.46559086099996],
            [122.60857599, -5.46558275999996],
            [122.60859188, -5.46559289999993],
            [122.60859213, -5.46559312999995],
            [122.60862388, -5.46558960999994],
            [122.6086868, -5.46559223],
            [122.60873661, -5.46560008999995],
            [122.60873137, -5.46577312999994],
            [122.6087471, -5.46588847999993],
            [122.60875759, -5.46607724999996],
            [122.60878642, -5.46622931000001],
            [122.60881526, -5.46639972],
            [122.608837405, -5.46663318599997],
            [122.60883927, -5.46665284999997],
            [122.60876258, -5.46669751999997],
            [122.60876072, -5.46669948999994],
            [122.60871333, -5.46674953999997],
            [122.60867686, -5.46677608999994],
            [122.60867912, -5.46677860999996],
            [122.608709198, -5.46681202899995],
            [122.608436605, -5.46675807799995],
            [122.607774505, -5.46640303899994],
            [122.607323509, -5.46611516899998],
            [122.606944716, -5.46582527599997],
            [122.606958874, -5.46541468599997],
            [122.606997257, -5.465184391],
            [122.607203618, -5.46473039599994],
            [122.607209019, -5.46473215500001],
            [122.607227553, -5.46473819299996],
            [122.607990407, -5.46506924299996],
            [122.608004801, -5.46513161499997],
            [122.608364638, -5.46532832499997],
            [122.608518644, -5.46534299299998]
          ]
        ]
      }
    },
    {
      "type": "Feature",
      "properties": {
        "join_key": "BATARAGURU-RW008-RT001",
        "NAMA_KELURAHAN": "BATARAGURU",
        "NAMA_RW": "RW 008",
        "NAMA_RT": "RT 001"
      },
      "geometry": {
        "type": "Polygon",
        "coordinates": [
          [
            [122.605514204, -5.46446720399996],
            [122.6055356, -5.46447228999995],
            [122.60570549, -5.46451267999993],
            [122.60594139, -5.46444617999992],
            [122.60595927, -5.46442981199995],
            [122.606004107, -5.46466622499998],
            [122.606503081, -5.46484854299996],
            [122.606200817, -5.46547225999996],
            [122.606124052, -5.46545786699994],
            [122.605688489, -5.46561159499993],
            [122.605701843, -5.46560180199998],
            [122.605553111, -5.46537630399996],
            [122.605462977932, -5.46535827723609],
            [122.605372719916, -5.46517908852802],
            [122.605373906765, -5.46504497461735],
            [122.60550993, -5.46503565799998],
            [122.605514204, -5.46446720399996]
          ]
        ]
      }
    },
    {
      "type": "Feature",
      "properties": {
        "join_key": "BATARAGURU-RW008-RT002",
        "NAMA_KELURAHAN": "BATARAGURU",
        "NAMA_RW": "RW 008",
        "NAMA_RT": "RT 002"
      },
      "geometry": {
        "type": "Polygon",
        "coordinates": [
          [
            [122.604054693, -5.46597216499993],
            [122.60399626, -5.46590044999994],
            [122.60398864, -5.46589109999998],
            [122.60391995, -5.46583549999997],
            [122.60387853, -5.46580196999997],
            [122.60373998, -5.46570094],
            [122.60373592, -5.46569793999995],
            [122.603676515, -5.46565244299995],
            [122.60422891, -5.46523716699995],
            [122.604723087, -5.46529474099998],
            [122.604895808, -5.46485813799995],
            [122.605223747, -5.46427413799995],
            [122.60523619, -5.46428534999996],
            [122.60524603, -5.46429421999995],
            [122.60547721, -5.46445840999996],
            [122.605514204, -5.46446720399996],
            [122.60550993, -5.46503565799998],
            [122.605373906765, -5.46504497461735],
            [122.605372719916, -5.46517908852802],
            [122.605462977932, -5.46535827723609],
            [122.605553111, -5.46537630399996],
            [122.605701843, -5.46560180199998],
            [122.605688489, -5.46561159499993],
            [122.605557909, -5.46570735399996],
            [122.605505054, -5.46617247699993],
            [122.60544363, -5.46617105999997],
            [122.60544345, -5.46617242999997],
            [122.60543584, -5.46616900999992],
            [122.60519989, -5.46615327999998],
            [122.60504258, -5.46621095999997],
            [122.60475419, -5.46625814999993],
            [122.60447104, -5.46623192999994],
            [122.60426655, -5.46617424999995],
            [122.604104, -5.46603267999996],
            [122.604054693, -5.46597216499993]
          ]
        ]
      }
    },
    {
      "type": "Feature",
      "properties": {
        "join_key": "BATARAGURU-RW008-RT003",
        "NAMA_KELURAHAN": "BATARAGURU",
        "NAMA_RW": "RW 008",
        "NAMA_RT": "RT 003"
      },
      "geometry": {
        "type": "Polygon",
        "coordinates": [
          [
            [122.60417783, -5.46359266699995],
            [122.60425606, -5.46359970999993],
            [122.60452872, -5.46373603999996],
            [122.60461057, -5.46381788],
            [122.60465273, -5.46383167999995],
            [122.60495449, -5.46401804999994],
            [122.60503661, -5.46409848999997],
            [122.60508494, -5.4641458299999],
            [122.60511658, -5.46417756999995],
            [122.605223747, -5.46427413799995],
            [122.604895808, -5.46485813799995],
            [122.604723087, -5.46529474099998],
            [122.60422891, -5.46523716699995],
            [122.603676515, -5.46565244299995],
            [122.60336674, -5.46541518999993],
            [122.60311145, -5.46517067999997],
            [122.60302865, -5.46488952999995],
            [122.60300287, -5.46485289999993],
            [122.60292946, -5.46455402],
            [122.60306055, -5.46427087000002],
            [122.60323358, -5.46401393999997],
            [122.60352722, -5.46380420000002],
            [122.60379464, -5.46366786999995],
            [122.60405157, -5.46358397999995],
            [122.60407655, -5.46358397999995],
            [122.60408134, -5.46358397999995],
            [122.60417783, -5.46359266699995]
          ]
        ]
      }
    },
    {
      "type": "Feature",
      "properties": {
        "join_key": "BATARAGURU-RW009-RT001",
        "NAMA_KELURAHAN": "BATARAGURU",
        "NAMA_RW": "RW 009",
        "NAMA_RT": "RT 001"
      },
      "geometry": {
        "type": "Polygon",
        "coordinates": [
          [
            [122.608709198, -5.46681202899995],
            [122.60883253, -5.46694905999994],
            [122.60894789, -5.46710635999995],
            [122.609058, -5.46723220999997],
            [122.60916025, -5.46737115999997],
            [122.60925463, -5.46749961999995],
            [122.60933328, -5.46762283999993],
            [122.60938572, -5.46771460999997],
            [122.609401486, -5.46775212699993],
            [122.60940461, -5.46775955999993],
            [122.60940407, -5.46775982999998],
            [122.60940361, -5.46776058999996],
            [122.609401659, -5.46776162799996],
            [122.609401848, -5.46777201899996],
            [122.609402168, -5.46778961099994],
            [122.609451738, -5.46804952199994],
            [122.609476592, -5.46817983299997],
            [122.60947179, -5.46820850099994],
            [122.609470428, -5.46821663299994],
            [122.608609327, -5.46785198299996],
            [122.60824949, -5.46731462599996],
            [122.607415059, -5.46673621399998],
            [122.607405072, -5.46672929099998],
            [122.606887993, -5.46672088299994],
            [122.606906098, -5.46656616499998],
            [122.606944481, -5.46583209699997],
            [122.606944716, -5.46582527599997],
            [122.607323509, -5.46611516899998],
            [122.607774505, -5.46640303899994],
            [122.608436605, -5.46675807799995],
            [122.608709198, -5.46681202899995]
          ]
        ]
      }
    },
    {
      "type": "Feature",
      "properties": {
        "join_key": "BATARAGURU-RW009-RT002",
        "NAMA_KELURAHAN": "BATARAGURU",
        "NAMA_RW": "RW 009",
        "NAMA_RT": "RT 002"
      },
      "geometry": {
        "type": "Polygon",
        "coordinates": [
          [
            [122.607572996, -5.468250202],
            [122.6073427, -5.46823101099996],
            [122.607280329, -5.46791435499996],
            [122.607347498, -5.46789996099995],
            [122.607333105, -5.46784238699997],
            [122.607155585, -5.467832791],
            [122.607145989, -5.46772244099998],
            [122.607213159, -5.46771284599993],
            [122.607415059, -5.46673621399998],
            [122.60824949, -5.46731462599996],
            [122.608609327, -5.46785198299996],
            [122.609470428, -5.46821663299994],
            [122.60945809, -5.46829029],
            [122.60932821, -5.46896122999995],
            [122.60809893, -5.46940682999998],
            [122.607833487, -5.46950203199998],
            [122.606943215, -5.46982133099993],
            [122.607616177, -5.46840853099997],
            [122.607572996, -5.468250202]
          ]
        ]
      }
    },
    {
      "type": "Feature",
      "properties": {
        "join_key": "BATARAGURU-RW009-RT003",
        "NAMA_KELURAHAN": "BATARAGURU",
        "NAMA_RW": "RW 009",
        "NAMA_RT": "RT 003"
      },
      "geometry": {
        "type": "Polygon",
        "coordinates": [
          [
            [122.60563478, -5.47009656999995],
            [122.6056015, -5.47002975999994],
            [122.60557477, -5.46996263999995],
            [122.60554605, -5.46989056999997],
            [122.60553499, -5.46980706999995],
            [122.60551867, -5.46975103999995],
            [122.60551377, -5.46970592999998],
            [122.605524, -5.46963450999993],
            [122.60552405, -5.46955407999997],
            [122.60554786, -5.46949057999996],
            [122.60557957, -5.4693954599999],
            [122.60559321, -5.46935453999994],
            [122.605601777, -5.46932797799997],
            [122.60560307, -5.46932396999995],
            [122.6056131, -5.46928389999994],
            [122.60562469, -5.46925273999994],
            [122.60563398, -5.46922817999996],
            [122.60564648, -5.46919486999997],
            [122.60570765, -5.46909471999989],
            [122.60577438, -5.46897231],
            [122.60585779, -5.46883876999993],
            [122.6059523, -5.46869967999993],
            [122.60604128, -5.46853276],
            [122.60606379, -5.46848350999996],
            [122.60609055, -5.46842495999996],
            [122.60613028, -5.468338],
            [122.60622486, -5.46810984999998],
            [122.60626387, -5.46790949999996],
            [122.60629004, -5.46780164999996],
            [122.60633726, -5.46771507999995],
            [122.60642875, -5.46760731999996],
            [122.60645315, -5.46758494999995],
            [122.6064642, -5.46754549999997],
            [122.60647336, -5.46753829999995],
            [122.606472856, -5.46751209299994],
            [122.606656611, -5.46741537999997],
            [122.606853322, -5.46701716099994],
            [122.606887993, -5.46672088299994],
            [122.607405072, -5.46672929099998],
            [122.607415059, -5.46673621399998],
            [122.607213159, -5.46771284599993],
            [122.607145989, -5.46772244099998],
            [122.607155585, -5.467832791],
            [122.607333105, -5.46784238699997],
            [122.607347498, -5.46789996099995],
            [122.607280329, -5.46791435499996],
            [122.6073427, -5.46823101099996],
            [122.607572996, -5.468250202],
            [122.607616177, -5.46840853099997],
            [122.606943215, -5.46982133099993],
            [122.60679734, -5.46987364999995],
            [122.60575569, -5.47024930999993],
            [122.60571519, -5.47020030999994],
            [122.60563478, -5.47009656999995]
          ]
        ]
      }
    },
    {
      "type": "Feature",
      "properties": {
        "join_key": "WALE-RW001-RT001",
        "NAMA_KELURAHAN": "WALE",
        "NAMA_RW": "RW 001",
        "NAMA_RT": "RT 001"
      },
      "geometry": {
        "type": "Polygon",
        "coordinates": [
          [
            [122.610822785164, -5.45772882603461],
            [122.61066539, -5.45763068999998],
            [122.61051743, -5.45754272999994],
            [122.61012487, -5.45730471999997],
            [122.61002654, -5.45726382000001],
            [122.60985876, -5.45719388999995],
            [122.6097116, -5.45713254999992],
            [122.609358781, -5.45703520599995],
            [122.60935285, -5.45703356999995],
            [122.60865992, -5.45696152999995],
            [122.608532969, -5.45697220699998],
            [122.608386132, -5.45633146099993],
            [122.60838188, -5.45631290799997],
            [122.60838188, -5.45560282899993],
            [122.608413631, -5.45502495999995],
            [122.60841459, -5.45503721999995],
            [122.60846679, -5.45512273999998],
            [122.60847027, -5.45512843999995],
            [122.60847272, -5.45513241999993],
            [122.60849283, -5.45513946999995],
            [122.60849351, -5.45513657],
            [122.60849502, -5.45513013999994],
            [122.60849864, -5.45511468999998],
            [122.60855864, -5.45495871999998],
            [122.60860779, -5.45480609999994],
            [122.60861401, -5.45478669999995],
            [122.60862093, -5.45477334999993],
            [122.60862358, -5.45473580999993],
            [122.60865183, -5.45433607999996],
            [122.60869685, -5.45376336999993],
            [122.60892009, -5.45378141999994],
            [122.60887645, -5.45478096999996],
            [122.60895811, -5.45479171999995],
            [122.6089621, -5.45479224999997],
            [122.6090578, -5.45480485],
            [122.6094187, -5.45484259999997],
            [122.60970139, -5.45487330999994],
            [122.60989506, -5.45489234999997],
            [122.60989834, -5.45485528999995],
            [122.60991972, -5.45461431999996],
            [122.60983937, -5.45458741999994],
            [122.60984836, -5.45448003999998],
            [122.60995554, -5.45446220999997],
            [122.61000053, -5.45393424999997],
            [122.60994703, -5.45380893000002],
            [122.60997391, -5.45366576],
            [122.61167052, -5.45381898999995],
            [122.61165255, -5.45398005999994],
            [122.61072424, -5.45390052999994],
            [122.61068398, -5.45429568999998],
            [122.61064365, -5.45479394999995],
            [122.61072933, -5.45486845999994],
            [122.61070635, -5.45496030999994],
            [122.61077948, -5.4549648199999],
            [122.61101647, -5.45497454],
            [122.61122921, -5.45498011999998],
            [122.6112607, -5.45498375999996],
            [122.61127051, -5.4549871299999],
            [122.61127334, -5.45499591999993],
            [122.61127386, -5.45500575999995],
            [122.61127018, -5.45509630999993],
            [122.61127224, -5.45511104999997],
            [122.61125625, -5.4551437699999],
            [122.61123753, -5.45557324999994],
            [122.61151604, -5.45561806999996],
            [122.61155859, -5.45562813999995],
            [122.61161532, -5.45600654999994],
            [122.61177965, -5.45641443999996],
            [122.611944, -5.45679942999994],
            [122.61201252, -5.45690943999997],
            [122.612064766, -5.45698356299994],
            [122.61214499, -5.45709737999994],
            [122.61215864, -5.45719818999994],
            [122.61213113, -5.45731729999993],
            [122.61214018, -5.45746850999997],
            [122.61220412, -5.45757392999997],
            [122.61235947, -5.45773439999996],
            [122.61252398, -5.45787196],
            [122.61276498, -5.45807200999997],
            [122.61290785, -5.45818835999995],
            [122.613004467, -5.45826107199997],
            [122.61303581, -5.45828465999996],
            [122.61306323, -5.45830758999996],
            [122.61310211, -5.45835755],
            [122.61317049, -5.45843288999994],
            [122.613155923, -5.45843275899995],
            [122.613074, -5.45843201999998],
            [122.61288824, -5.45846053999998],
            [122.61251669, -5.45855336999996],
            [122.61228806, -5.45858185999998],
            [122.61188241, -5.45833525999996],
            [122.61150716, -5.45811516999993],
            [122.61102468, -5.45785591999993],
            [122.61085968, -5.4577518299999],
            [122.610822785164, -5.45772882603461]
          ]
        ]
      }
    },
    {
      "type": "Feature",
      "properties": {
        "join_key": "WALE-RW001-RT002",
        "NAMA_KELURAHAN": "WALE",
        "NAMA_RW": "RW 001",
        "NAMA_RT": "RT 002"
      },
      "geometry": {
        "type": "Polygon",
        "coordinates": [
          [
            [122.606957982, -5.45441713999997],
            [122.6071783, -5.45446039999996],
            [122.60772302, -5.45447865999991],
            [122.60806456, -5.45463146999998],
            [122.60807583, -5.45463791999993],
            [122.6080865, -5.45464365999994],
            [122.60809329, -5.45464729999998],
            [122.6081049, -5.45465354],
            [122.60811497, -5.45465894999996],
            [122.60812965, -5.45466722],
            [122.60814182, -5.45467407999996],
            [122.60815974, -5.45468415999996],
            [122.60817074, -5.45469035999997],
            [122.60818267, -5.45469708],
            [122.60820009, -5.45470866999994],
            [122.60821536, -5.45471882999993],
            [122.60822361, -5.45472431999997],
            [122.60825909, -5.4547479299999],
            [122.60831019, -5.45478604999993],
            [122.60835297, -5.45483861999998],
            [122.60838832, -5.45491088999997],
            [122.60841012, -5.45498007999995],
            [122.608413631, -5.45502495999995],
            [122.60838188, -5.45560282899993],
            [122.60838188, -5.45631290799997],
            [122.608386132, -5.45633146099993],
            [122.607614227, -5.45644724699997],
            [122.606635471, -5.45655279899995],
            [122.606271166, -5.45541101399994],
            [122.606280431, -5.45540611799993],
            [122.606279819, -5.455403975],
            [122.606942532, -5.45512784399996],
            [122.606957982, -5.45441713999997]
          ]
        ]
      }
    },
    {
      "type": "Feature",
      "properties": {
        "join_key": "WALE-RW001-RT003",
        "NAMA_KELURAHAN": "WALE",
        "NAMA_RW": "RW 001",
        "NAMA_RT": "RT 003"
      },
      "geometry": {
        "type": "Polygon",
        "coordinates": [
          [
            [122.608386132, -5.45633146099993],
            [122.608532969, -5.45697220699998],
            [122.60847622, -5.45697697999998],
            [122.60832413, -5.45698995],
            [122.607648447, -5.45705115199997],
            [122.60758686, -5.45705673],
            [122.60733942, -5.45707901999998],
            [122.60730247, -5.45708234999995],
            [122.60686939, -5.45712400999998],
            [122.60645227, -5.45717485999995],
            [122.60608182, -5.45722533999998],
            [122.606059551, -5.45722835899996],
            [122.606057154, -5.457228684],
            [122.605984848241, -5.45659811174126],
            [122.605579078038, -5.45666447602671],
            [122.605510743508, -5.45646828979308],
            [122.605393913503, -5.45621919940655],
            [122.605303535575, -5.45604285223025],
            [122.605249500095, -5.45595084587102],
            [122.60587286, -5.45562147199996],
            [122.606271166, -5.45541101399994],
            [122.606635471, -5.45655279899995],
            [122.607614227, -5.45644724699997],
            [122.608386132, -5.45633146099993]
          ]
        ]
      }
    },
    {
      "type": "Feature",
      "properties": {
        "join_key": "WALE-RW002-RT001",
        "NAMA_KELURAHAN": "WALE",
        "NAMA_RW": "RW 002",
        "NAMA_RT": "RT 001"
      },
      "geometry": {
        "type": "Polygon",
        "coordinates": [
          [
            [122.605984848241, -5.45659811174126],
            [122.606057154, -5.457228684],
            [122.60582354, -5.45726035999996],
            [122.60542566, -5.45730172999992],
            [122.60521905, -5.45732414],
            [122.60519373, -5.45732687999992],
            [122.60459595, -5.45745060999997],
            [122.60455093, -5.45745997999995],
            [122.60455002, -5.45745821000001],
            [122.60454992, -5.45745801999993],
            [122.60454379, -5.45745379999994],
            [122.60454357, -5.45745379999994],
            [122.60435877, -5.45745379999994],
            [122.60375784, -5.45758577999993],
            [122.60362998, -5.45728159999993],
            [122.60362468, -5.45719305999996],
            [122.603618849, -5.45709203399997],
            [122.60420777, -5.45689344499992],
            [122.604083026, -5.45656719299996],
            [122.605249500095, -5.45595084587102],
            [122.605303535575, -5.45604285223025],
            [122.605393913503, -5.45621919940655],
            [122.605510743508, -5.45646828979308],
            [122.605579078038, -5.45666447602671],
            [122.605984848241, -5.45659811174126]
          ]
        ]
      }
    },
    {
      "type": "Feature",
      "properties": {
        "join_key": "WALE-RW002-RT002",
        "NAMA_KELURAHAN": "WALE",
        "NAMA_RW": "RW 002",
        "NAMA_RT": "RT 002"
      },
      "geometry": {
        "type": "Polygon",
        "coordinates": [
          [
            [122.603618334, -5.45708311799998],
            [122.60360006, -5.45676646999994],
            [122.60366191, -5.45620373],
            [122.603663022, -5.45619091299996],
            [122.60500873448926, -5.455510720619801],
            [122.60515910788085, -5.455436948798975],
            [122.606146092, -5.454935931],
            [122.606279819, -5.455403975],
            [122.606280431, -5.45540611799993],
            [122.606271166, -5.45541101399994],
            [122.60587286, -5.45562147199996],
            [122.605249500095, -5.45595084587102],
            [122.604083026, -5.45656719299996],
            [122.60420777, -5.45689344499992],
            [122.603618849, -5.45709203399997],
            [122.603618334, -5.45708311799998]
          ]
        ]
      }
    },
    {
      "type": "Feature",
      "properties": {
        "join_key": "WALE-RW002-RT003",
        "NAMA_KELURAHAN": "WALE",
        "NAMA_RW": "RW 002",
        "NAMA_RT": "RT 003"
      },
      "geometry": {
        "type": "Polygon",
        "coordinates": [
          [
            [122.603663022, -5.45619091299996],
            [122.60367218, -5.45608530999995],
            [122.60367872, -5.45600991999995],
            [122.60368397, -5.45594937999996],
            [122.603684, -5.45594936999994],
            [122.60371695, -5.45593698999994],
            [122.60383118, -5.45589476999992],
            [122.60386246, -5.45587936999993],
            [122.60386596, -5.45584951999996],
            [122.60387248, -5.45575498999996],
            [122.60387735, -5.45569804999998],
            [122.60389618, -5.4554778299999],
            [122.603904, -5.45538632999995],
            [122.60391428, -5.45528664999995],
            [122.60391749, -5.45525547999996],
            [122.60382050595798, -5.454846597591145],
            [122.60366562, -5.45419138399996],
            [122.603742952, -5.45402482199996],
            [122.603957104, -5.45394154099995],
            [122.603915463, -5.45387610499996],
            [122.60379649, -5.45387610499996],
            [122.603766747, -5.45381066999995],
            [122.603802439, -5.45370359399993],
            [122.603701312, -5.45350728899997],
            [122.603588287, -5.45345969999994],
            [122.603546647, -5.45334072699995],
            [122.603570442, -5.45324554799993],
            [122.603463366, -5.45303139699996],
            [122.603362239, -5.452995705],
            [122.603320598, -5.45291837199994],
            [122.603397931, -5.45285888599995],
            [122.603332495, -5.45269827199997],
            [122.603421725, -5.45265068299995],
            [122.603374136, -5.45258524799994],
            [122.60364861377107, -5.45248718108893],
            [122.603808388, -5.45243058299997],
            [122.60385921, -5.452524313],
            [122.60395893, -5.45248769999995],
            [122.60396012, -5.45249056999996],
            [122.60396378, -5.45248771999997],
            [122.604093, -5.45246421999998],
            [122.60411649, -5.45253470999995],
            [122.60441017, -5.45241135999995],
            [122.60442779, -5.45247596999998],
            [122.60419285, -5.45258756999995],
            [122.604093, -5.45270503999996],
            [122.60425158, -5.45291649000001],
            [122.60465098, -5.45275202999996],
            [122.60468622, -5.45281664],
            [122.60436905, -5.45299871999993],
            [122.60463924, -5.4535567099999],
            [122.60475083, -5.45372703999993],
            [122.6047802, -5.45375640999994],
            [122.60487418, -5.45375640999994],
            [122.60484412, -5.45385659999995],
            [122.6048487, -5.45385557],
            [122.60486836, -5.45385469999998],
            [122.60487751, -5.45388009999994],
            [122.60491896, -5.45397119999997],
            [122.60494295, -5.45402638999997],
            [122.60496653, -5.45406667999995],
            [122.60498836, -5.45408115000001],
            [122.60501807, -5.45407984999997],
            [122.60506307, -5.45407418999997],
            [122.60511857, -5.45406239999994],
            [122.6052347, -5.45402674999997],
            [122.60524253, -5.45402410999998],
            [122.60551766, -5.45393132999993],
            [122.60583026, -5.45385099],
            [122.60586643, -5.45385326999997],
            [122.60586494, -5.45384770999993],
            [122.60588167, -5.45384295999997],
            [122.6058845, -5.45384216],
            [122.60594886, -5.45382388999997],
            [122.6060061, -5.45381997999993],
            [122.60606246, -5.45382526999994],
            [122.60609224, -5.45383997999995],
            [122.60611661, -5.45385201999995],
            [122.60617644, -5.45389585000001],
            [122.60625331, -5.45395893999992],
            [122.60631531, -5.45400976999996],
            [122.60638255, -5.45407767999995],
            [122.60644456, -5.45413419999994],
            [122.60649827, -5.45417932999993],
            [122.60652904, -5.4542057699999],
            [122.60653119, -5.45420761999998],
            [122.60654905, -5.45422295999992],
            [122.60657409, -5.45424090999995],
            [122.60660162, -5.45426064999998],
            [122.60676757, -5.45437959],
            [122.6069563, -5.45441680999994],
            [122.606957982, -5.45441713999997],
            [122.606942532, -5.45512784399996],
            [122.606279819, -5.455403975],
            [122.606146092, -5.454935931],
            [122.60515910788085, -5.455436948798975],
            [122.60500873448926, -5.455510720619801],
            [122.603663022, -5.45619091299996]
          ]
        ]
      }
    },
    {
      "type": "Feature",
      "properties": {
        "join_key": "BATULO-RW001-RT001",
        "NAMA_KELURAHAN": "Batulo",
        "NAMA_RW": "RW 001",
        "NAMA_RT": "RT 001"
      },
      "geometry": {
        "type": "Polygon",
        "coordinates": [
          [
            [122.613286208413, -5.45654138196756],
            [122.613283474138, -5.45653954379648],
            [122.613215289105, -5.45664769936616],
            [122.613150701475, -5.45671228699611],
            [122.613072066362, -5.45666978152987],
            [122.613069357, -5.45667034599997],
            [122.613038256895, -5.45675594836882],
            [122.612839800626, -5.45669393078473],
            [122.612623488467, -5.45724434885302],
            [122.612579979, -5.45722449499994],
            [122.612392864, -5.45710454899995],
            [122.612064766, -5.45698356299994],
            [122.61201252, -5.45690943999997],
            [122.611944, -5.45679942999994],
            [122.61177965, -5.45641443999996],
            [122.61161532, -5.45600654999994],
            [122.61155859, -5.45562813999995],
            [122.61151604, -5.45561806999996],
            [122.61123753, -5.45557324999994],
            [122.61125625, -5.4551437699999],
            [122.61127224, -5.45511104999997],
            [122.61127018, -5.45509630999993],
            [122.61127386, -5.45500575999995],
            [122.61127334, -5.45499591999993],
            [122.61127051, -5.4549871299999],
            [122.6112607, -5.45498375999996],
            [122.61122921, -5.45498011999998],
            [122.61101647, -5.45497454],
            [122.61077948, -5.4549648199999],
            [122.61070635, -5.45496030999994],
            [122.61072933, -5.45486845999994],
            [122.61064365, -5.45479394999995],
            [122.61068398, -5.45429568999998],
            [122.61072424, -5.45390052999994],
            [122.61165255, -5.45398005999994],
            [122.61167052, -5.45381898999995],
            [122.61181589, -5.45383017999997],
            [122.61375753, -5.45427275999998],
            [122.6137147, -5.45441552999997],
            [122.61290092, -5.4542299299999],
            [122.61257446, -5.45576858999993],
            [122.613365343, -5.45610105299996],
            [122.613481705997, -5.45614996820243],
            [122.613442004867, -5.45623117505875],
            [122.613391916501, -5.4562997170334],
            [122.613328646986, -5.45648425311896],
            [122.613286208413, -5.45654138196756]
          ]
        ]
      }
    },
    {
      "type": "Feature",
      "properties": {
        "join_key": "BATULO-RW001-RT002",
        "NAMA_KELURAHAN": "Batulo",
        "NAMA_RW": "RW 001",
        "NAMA_RT": "RT 002"
      },
      "geometry": {
        "type": "Polygon",
        "coordinates": [
          [
            [122.613004467, -5.45826107199997],
            [122.61290785, -5.45818835999995],
            [122.61276498, -5.45807200999997],
            [122.61252398, -5.45787196],
            [122.61235947, -5.45773439999996],
            [122.61220412, -5.45757392999997],
            [122.61214018, -5.45746850999997],
            [122.61213113, -5.45731729999993],
            [122.61215864, -5.45719818999994],
            [122.61214499, -5.45709737999994],
            [122.612064766, -5.45698356299994],
            [122.612392864, -5.45710454899995],
            [122.612579979, -5.45722449499994],
            [122.612623488467, -5.45724434885302],
            [122.612839800626, -5.45669393078473],
            [122.613038256895, -5.45675594836882],
            [122.613069357, -5.45667034599997],
            [122.613072066362, -5.45666978152987],
            [122.613150701475, -5.45671228699611],
            [122.613215289105, -5.45664769936616],
            [122.613283474138, -5.45653954379648],
            [122.613286208413, -5.45654138196756],
            [122.61343879, -5.45664395799997],
            [122.613437268646, -5.45664672686602],
            [122.613484102386, -5.45666575307272],
            [122.613508301573, -5.45669215218566],
            [122.613400505195, -5.45685714664158],
            [122.6133081083, -5.45700674161495],
            [122.613253744311, -5.45698074144662],
            [122.613198899, -5.45708055999996],
            [122.613275664, -5.45711414499994],
            [122.613190727, -5.45745625399996],
            [122.613189303, -5.45746198699994],
            [122.61312933, -5.45745239199994],
            [122.613081352, -5.45760352299995],
            [122.613177308, -5.45764190599993],
            [122.613004467, -5.45826107199997]
          ]
        ]
      }
    },
    {
      "type": "Feature",
      "properties": {
        "join_key": "BATULO-RW001-RT003",
        "NAMA_KELURAHAN": "Batulo",
        "NAMA_RW": "RW 001",
        "NAMA_RT": "RT 003"
      },
      "geometry": {
        "type": "Polygon",
        "coordinates": [
          [
            [122.614339928, -5.45764456899997],
            [122.614338383, -5.45765629899995],
            [122.614151267, -5.45762271499996],
            [122.614108087, -5.45780023399993],
            [122.614104939, -5.45779944399993],
            [122.613573129, -5.45766589499993],
            [122.613546741, -5.45773546399994],
            [122.613268467, -5.45767069299996],
            [122.613309249, -5.45750516799995],
            [122.613190727, -5.45745625399996],
            [122.613275664, -5.45711414499994],
            [122.613198899, -5.45708055999996],
            [122.613253744311, -5.45698074144662],
            [122.6133081083, -5.45700674161495],
            [122.613400505195, -5.45685714664158],
            [122.613508301573, -5.45669215218566],
            [122.613484102386, -5.45666575307272],
            [122.613437268646, -5.45664672686602],
            [122.61343879, -5.45664395799997],
            [122.613286208413, -5.45654138196756],
            [122.613328646986, -5.45648425311896],
            [122.613391916501, -5.4562997170334],
            [122.613442004867, -5.45623117505875],
            [122.613481705997, -5.45614996820243],
            [122.61382177, -5.45629291999996],
            [122.61386003, -5.45632849],
            [122.6139777, -5.45638197999995],
            [122.61431558, -5.45650982999996],
            [122.61408635, -5.45701715999996],
            [122.61408174, -5.45702327999991],
            [122.6140799, -5.45703249000001],
            [122.61407977, -5.45703310999995],
            [122.61407191, -5.45704752999996],
            [122.61406217, -5.45707154999998],
            [122.6140624, -5.45707161999997],
            [122.61420955, -5.45712093999994],
            [122.61435899, -5.45716812999996],
            [122.61440212, -5.45716200999994],
            [122.614403451, -5.45716218899998],
            [122.614339928, -5.45764456899997]
          ]
        ]
      }
    },
    {
      "type": "Feature",
      "properties": {
        "join_key": "BATULO-RW001-RT004",
        "NAMA_KELURAHAN": "Batulo",
        "NAMA_RW": "RW 001",
        "NAMA_RT": "RT 004"
      },
      "geometry": {
        "type": "Polygon",
        "coordinates": [
          [
            [122.613886031, -5.45897071399998],
            [122.613882589, -5.45896850499997],
            [122.613206095, -5.45845993499995],
            [122.613168336, -5.45843948299996],
            [122.61317049, -5.45843288999994],
            [122.61310211, -5.45835755],
            [122.61306323, -5.45830758999996],
            [122.61303581, -5.45828465999996],
            [122.613004467, -5.45826107199997],
            [122.613177308, -5.45764190599993],
            [122.613081352, -5.45760352299995],
            [122.61312933, -5.45745239199994],
            [122.613189303, -5.45746198699994],
            [122.613190727, -5.45745625399996],
            [122.613309249, -5.45750516799995],
            [122.613268467, -5.45767069299996],
            [122.613546741, -5.45773546399994],
            [122.613573129, -5.45766589499993],
            [122.614104939, -5.45779944399993],
            [122.613886031, -5.45897071399998]
          ]
        ]
      }
    },
    {
      "type": "Feature",
      "properties": {
        "join_key": "BATULO-RW002-RT001",
        "NAMA_KELURAHAN": "Batulo",
        "NAMA_RW": "RW 002",
        "NAMA_RT": "RT 001"
      },
      "geometry": {
        "type": "Polygon",
        "coordinates": [
          [
            [122.613886031, -5.45897071399998],
            [122.614104939, -5.45779944399993],
            [122.614108087, -5.45780023399993],
            [122.614151267, -5.45762271499996],
            [122.614338383, -5.45765629899995],
            [122.614339928, -5.45764456899997],
            [122.615096439, -5.45777384599995],
            [122.615034068, -5.45819365599993],
            [122.615096439, -5.45821764499993],
            [122.615108434, -5.45858707799994],
            [122.614969297, -5.45859187599997],
            [122.614938111, -5.45884136299998],
            [122.614880537, -5.45888694199995],
            [122.614885335, -5.45919640200001],
            [122.614724344, -5.45950806399998],
            [122.61471981, -5.45950586199997],
            [122.613886031, -5.45897071399998]
          ]
        ]
      }
    },
    {
      "type": "Feature",
      "properties": {
        "join_key": "BATULO-RW002-RT002",
        "NAMA_KELURAHAN": "Batulo",
        "NAMA_RW": "RW 002",
        "NAMA_RT": "RT 002"
      },
      "geometry": {
        "type": "Polygon",
        "coordinates": [
          [
            [122.614824528, -5.45955672499998],
            [122.614724344, -5.45950806399998],
            [122.614885335, -5.45919640200001],
            [122.614880537, -5.45888694199995],
            [122.614938111, -5.45884136299998],
            [122.614969297, -5.45859187599997],
            [122.615108434, -5.45858707799994],
            [122.615096439, -5.45821764499993],
            [122.615034068, -5.45819365599993],
            [122.615096439, -5.45777384599995],
            [122.614339928, -5.45764456899997],
            [122.614403451, -5.45716218899998],
            [122.61443476, -5.45716639999995],
            [122.61445979, -5.45716975999995],
            [122.61446302, -5.45716168999998],
            [122.61446554, -5.45714968999996],
            [122.61446976, -5.45712960999998],
            [122.61448319, -5.45711460999998],
            [122.61450798, -5.45711100999995],
            [122.61452068, -5.45711361999997],
            [122.61453555, -5.45711666999995],
            [122.61455133, -5.45711989999996],
            [122.61456994, -5.45712372000002],
            [122.61459227, -5.45712910999993],
            [122.6146063, -5.45713249999994],
            [122.61462569, -5.45713718999998],
            [122.61465088, -5.45714327],
            [122.61466983, -5.45714784999997],
            [122.61469812, -5.45715642999996],
            [122.61471839, -5.45716257999993],
            [122.61473308, -5.45716702999995],
            [122.61475956, -5.45717298999995],
            [122.61476222, -5.45717358999998],
            [122.61477464, -5.45717637999996],
            [122.61478843, -5.45717683999993],
            [122.61478966, -5.45717687999996],
            [122.61479014, -5.45717689999998],
            [122.6147932, -5.457177],
            [122.61480614, -5.45717742999994],
            [122.61484021, -5.45717744999997],
            [122.61485958, -5.45716762999996],
            [122.61486941, -5.45714150999993],
            [122.61487716, -5.45711570999993],
            [122.6148803, -5.45710522999997],
            [122.61488494, -5.45708977999993],
            [122.6148893, -5.45706951999995],
            [122.61489284, -5.45705310999995],
            [122.61489545, -5.457041],
            [122.61489659, -5.45703570999998],
            [122.61490796, -5.45701190999996],
            [122.61491958, -5.45700622999993],
            [122.61494489, -5.45700365999994],
            [122.61495887, -5.45700510999995],
            [122.61497251, -5.45700652999995],
            [122.61499634, -5.45701137],
            [122.61502233, -5.45701663999995],
            [122.61504214, -5.45702012999995],
            [122.61507296, -5.45702555999998],
            [122.615098, -5.45702996999996],
            [122.61512535, -5.45703478999997],
            [122.61515006, -5.45703913999995],
            [122.61517354, -5.45704326999993],
            [122.61519011, -5.45704618999997],
            [122.61520972, -5.45704964999993],
            [122.61522941, -5.45705310999995],
            [122.61526334, -5.45705908999997],
            [122.61528798, -5.45706342999996],
            [122.61531859, -5.45706881999996],
            [122.615345, -5.45707346999995],
            [122.61536787, -5.45707749999998],
            [122.61539814, -5.45708282999994],
            [122.61542224, -5.45708707999996],
            [122.6154409, -5.45709036999996],
            [122.61547641, -5.45709661999997],
            [122.61549581, -5.45709978999998],
            [122.61552091, -5.45710387999998],
            [122.61554039, -5.45710706999992],
            [122.61557804, -5.4571132199999],
            [122.61561106, -5.45711860999995],
            [122.61565372, -5.45712557],
            [122.6156738, -5.45712884999995],
            [122.61570378, -5.45702208999995],
            [122.61576699, -5.45701743999998],
            [122.61577555, -5.45696893999997],
            [122.61587881, -5.45648922999993],
            [122.61576876, -5.45630481999996],
            [122.61568846, -5.456284],
            [122.61568251, -5.45632861999997],
            [122.61560518, -5.45631374999994],
            [122.6156022, -5.45628994999993],
            [122.6155219, -5.45628102999996],
            [122.61550108, -5.45632861999997],
            [122.61544285, -5.45631170999996],
            [122.6154726, -5.45611641999995],
            [122.61590327, -5.4562316499999],
            [122.6158821, -5.45639349999993],
            [122.61594288, -5.45651317999994],
            [122.61589843, -5.45675618999997],
            [122.61601861, -5.4567777399999],
            [122.61596384, -5.45717302],
            [122.61597259, -5.45717429999996],
            [122.61601931, -5.45718065999997],
            [122.61612154, -5.45719456999996],
            [122.61615952, -5.45720243999997],
            [122.6161804, -5.45720677],
            [122.61623822, -5.45722025999993],
            [122.61628442, -5.45723709999993],
            [122.61628209, -5.45725314999993],
            [122.61627355, -5.45727978999998],
            [122.61625845, -5.45733577999996],
            [122.61624371, -5.45739041999997],
            [122.61623313, -5.45744114999997],
            [122.61637727, -5.45748444999998],
            [122.61654859, -5.45747017999997],
            [122.61680557, -5.45752727999998],
            [122.616829368, -5.45752911099993],
            [122.616850045, -5.45789379199994],
            [122.616782876, -5.45821044799995],
            [122.616765571, -5.45820414699995],
            [122.616341476, -5.45804972099997],
            [122.615696168, -5.457896191],
            [122.615684173, -5.45820085299994],
            [122.615480266, -5.45818645899994],
            [122.615482665, -5.45849351999993],
            [122.615588217, -5.45859667399998],
            [122.615545036, -5.45879098599994],
            [122.615609807, -5.45884136299998],
            [122.615571424, -5.45901168599995],
            [122.61555943, -5.45922039099997],
            [122.615295428, -5.45978544799994],
            [122.615252397, -5.45976454699997],
            [122.614824528, -5.45955672499998]
          ]
        ]
      }
    },
    {
      "type": "Feature",
      "properties": {
        "join_key": "BATULO-RW002-RT003",
        "NAMA_KELURAHAN": "Batulo",
        "NAMA_RW": "RW 002",
        "NAMA_RT": "RT 003"
      },
      "geometry": {
        "type": "Polygon",
        "coordinates": [
          [
            [122.616765571, -5.45820414699995],
            [122.616747776, -5.46048642499994],
            [122.616549984, -5.46039096599998],
            [122.615307544, -5.45979133299995],
            [122.615295428, -5.45978544799994],
            [122.61555943, -5.45922039099997],
            [122.615571424, -5.45901168599995],
            [122.615609807, -5.45884136299998],
            [122.615545036, -5.45879098599994],
            [122.615588217, -5.45859667399998],
            [122.615482665, -5.45849351999993],
            [122.615480266, -5.45818645899994],
            [122.615684173, -5.45820085299994],
            [122.615696168, -5.457896191],
            [122.616341476, -5.45804972099997],
            [122.616765571, -5.45820414699995]
          ]
        ]
      }
    },
    {
      "type": "Feature",
      "properties": {
        "join_key": "BATULO-RW003-RT001",
        "NAMA_KELURAHAN": "Batulo",
        "NAMA_RW": "RW 003",
        "NAMA_RT": "RT 001"
      },
      "geometry": {
        "type": "Polygon",
        "coordinates": [
          [
            [122.616829368, -5.45752911099993],
            [122.61699117, -5.45754155999992],
            [122.61716249, -5.45755583999994],
            [122.61729098, -5.45761294999996],
            [122.61761188, -5.45761078999994],
            [122.61794127, -5.45762298999995],
            [122.618258696, -5.45764824199995],
            [122.618263006, -5.45844554199994],
            [122.618229421, -5.45846473299997],
            [122.618258208, -5.45871901799994],
            [122.617797616, -5.45877659199994],
            [122.617792819, -5.45973136],
            [122.61790963, -5.46056112399998],
            [122.617473763, -5.46068612699998],
            [122.6171715, -5.46069092499994],
            [122.617052721, -5.46063359899994],
            [122.616747776, -5.46048642499994],
            [122.616765571, -5.45820414699995],
            [122.616782876, -5.45821044799995],
            [122.616850045, -5.45789379199994],
            [122.616829368, -5.45752911099993]
          ]
        ]
      }
    },
    {
      "type": "Feature",
      "properties": {
        "join_key": "BATULO-RW003-RT002",
        "NAMA_KELURAHAN": "Batulo",
        "NAMA_RW": "RW 003",
        "NAMA_RT": "RT 002"
      },
      "geometry": {
        "type": "Polygon",
        "coordinates": [
          [
            [122.620375041, -5.46019207499995],
            [122.618745187, -5.460321493],
            [122.61790963, -5.46056112399998],
            [122.617792819, -5.45973136],
            [122.617797616, -5.45877659199994],
            [122.618258208, -5.45871901799994],
            [122.618229421, -5.45846473299997],
            [122.618263006, -5.45844554199994],
            [122.618258696, -5.45764824199995],
            [122.6182603, -5.45764836999997],
            [122.61829913, -5.45765145999996],
            [122.61847399, -5.45767585999994],
            [122.61846586, -5.45779785999997],
            [122.61846144, -5.45801736999995],
            [122.61853538, -5.45801843999994],
            [122.6185472, -5.45801847999997],
            [122.61869179, -5.45801896999997],
            [122.61886131, -5.4580182],
            [122.61900725, -5.45800821999995],
            [122.61906192, -5.45800016999994],
            [122.61914927, -5.45798729999997],
            [122.61918858, -5.45798247999994],
            [122.61923074, -5.45797730999993],
            [122.61923253, -5.45797652999994],
            [122.61949094, -5.45786433999997],
            [122.61951986, -5.45786385999997],
            [122.61952946, -5.45785968999997],
            [122.61963522, -5.45782341999995],
            [122.61976236, -5.45782305999995],
            [122.61986152, -5.45785289999998],
            [122.61991131, -5.45788838999995],
            [122.61997987, -5.45794096999992],
            [122.62007028, -5.45799794999995],
            [122.62009691, -5.45801651999994],
            [122.62009813, -5.45801736999995],
            [122.62009922, -5.45801812999997],
            [122.62010095, -5.45801933999995],
            [122.62010062, -5.45801527999995],
            [122.62030099, -5.45800838999997],
            [122.62028417, -5.45813876999996],
            [122.62025271, -5.45825412999994],
            [122.62023698, -5.45839046],
            [122.62022649, -5.45849007999994],
            [122.62018978, -5.45865263],
            [122.62018454, -5.45873127999994],
            [122.62022124, -5.45894626999996],
            [122.62024222, -5.45914551999994],
            [122.62026319, -5.45928184999997],
            [122.62026992, -5.45935582999994],
            [122.62029887, -5.45946093],
            [122.6203382, -5.45967067],
            [122.6203618, -5.45985156999997],
            [122.62038015, -5.46007703999993],
            [122.620375041, -5.46019207499995]
          ]
        ]
      }
    },
    {
      "type": "Feature",
      "properties": {
        "join_key": "BATULO-RW003-RT003",
        "NAMA_KELURAHAN": "Batulo",
        "NAMA_RW": "RW 003",
        "NAMA_RT": "RT 003"
      },
      "geometry": {
        "type": "Polygon",
        "coordinates": [
          [
            [122.616549984, -5.46039096599998],
            [122.616747776, -5.46048642499994],
            [122.617052721, -5.46063359899994],
            [122.616877183, -5.46097669599993],
            [122.616829205, -5.46117340699995],
            [122.616839162, -5.46140491699992],
            [122.616848396, -5.46161960499995],
            [122.616546133, -5.46164839199998],
            [122.61684392, -5.46264384899998],
            [122.616715706, -5.46269641699996],
            [122.616703359, -5.46269641699996],
            [122.61666986, -5.46260788],
            [122.61657547, -5.46227753999994],
            [122.61652304, -5.46206779999996],
            [122.61640768, -5.46171123999994],
            [122.61631854, -5.46151198999996],
            [122.61616648, -5.46128128],
            [122.61605637, -5.46111348999995],
            [122.6159153, -5.46094337699998],
            [122.616549984, -5.46039096599998]
          ]
        ]
      }
    },
    {
      "type": "Feature",
      "properties": {
        "join_key": "BATULO-RW004-RT001",
        "NAMA_KELURAHAN": "Batulo",
        "NAMA_RW": "RW 004",
        "NAMA_RT": "RT 001"
      },
      "geometry": {
        "type": "Polygon",
        "coordinates": [
          [
            [122.61263321, -5.45985585899998],
            [122.612754723, -5.45974128999995],
            [122.61275172, -5.45973938999994],
            [122.61276269, -5.45970812999997],
            [122.61280512, -5.45964444999994],
            [122.61285464, -5.45952413999993],
            [122.61293244, -5.45937552000001],
            [122.61301031, -5.4591207199999],
            [122.613067, -5.4588588299999],
            [122.61313077, -5.45855446999997],
            [122.613168336, -5.45843948299996],
            [122.613206095, -5.45845993499995],
            [122.613882589, -5.45896850499997],
            [122.613886031, -5.45897071399998],
            [122.61471981, -5.45950586199997],
            [122.614724344, -5.45950806399998],
            [122.614824528, -5.45955672499998],
            [122.614737084, -5.45973905399996],
            [122.614523834, -5.46011874499994],
            [122.614453617, -5.46025917899994],
            [122.614349592, -5.46043081999994],
            [122.614271573, -5.46045682599994],
            [122.614223132, -5.46053957899994],
            [122.61420192, -5.46052765],
            [122.614152877, -5.46051761399998],
            [122.614035054, -5.46067194499994],
            [122.614000596, -5.46070136099996],
            [122.613885738, -5.46049691299993],
            [122.613741803, -5.46054009399995],
            [122.613715415, -5.46042734499997],
            [122.613384365, -5.46020424599994],
            [122.613341184, -5.46022823499993],
            [122.61263321, -5.45985585899998]
          ]
        ]
      }
    },
    {
      "type": "Feature",
      "properties": {
        "join_key": "BATULO-RW004-RT002",
        "NAMA_KELURAHAN": "Batulo",
        "NAMA_RW": "RW 004",
        "NAMA_RT": "RT 002"
      },
      "geometry": {
        "type": "Polygon",
        "coordinates": [
          [
            [122.614223132, -5.46053957899994],
            [122.614271573, -5.46045682599994],
            [122.614349592, -5.46043081999994],
            [122.614453617, -5.46025917899994],
            [122.614523834, -5.46011874499994],
            [122.614737084, -5.45973905399996],
            [122.614824528, -5.45955672499998],
            [122.615252397, -5.45976454699997],
            [122.615127178, -5.46021236699994],
            [122.615098571, -5.46028778499994],
            [122.615069964, -5.46037880699994],
            [122.615007549, -5.46051924099994],
            [122.614939933, -5.46054524699997],
            [122.61488792, -5.46055044799993],
            [122.61488532, -5.46058425599996],
            [122.614882719, -5.46068307999997],
            [122.614815103, -5.46071948799995],
            [122.614765691, -5.46075589699996],
            [122.614755289, -5.46080010799995],
            [122.614820304, -5.46088332799997],
            [122.614903524, -5.46091453499998],
            [122.615223401, -5.46070648499996],
            [122.615580795, -5.46116599299997],
            [122.61554381, -5.46119203999998],
            [122.61529774, -5.46137672999994],
            [122.61508632, -5.46151540999995],
            [122.615070547, -5.46149411399996],
            [122.61505259, -5.46146986999997],
            [122.61501064, -5.46139383999997],
            [122.61495034, -5.46130732999995],
            [122.61489791, -5.46123915999993],
            [122.61485072, -5.46118672999996],
            [122.61480091, -5.461171],
            [122.6147406, -5.46112379999994],
            [122.61467768, -5.46105301999995],
            [122.61462787, -5.46101368999995],
            [122.61457806, -5.46096387999995],
            [122.61453087, -5.46091143999998],
            [122.61447057, -5.46084851999997],
            [122.614426, -5.46079609],
            [122.61439191, -5.46074364999993],
            [122.61434472, -5.46067286999994],
            [122.61430802, -5.46062042999995],
            [122.61425361, -5.46056342999998],
            [122.61425738, -5.46055884],
            [122.614223132, -5.46053957899994]
          ]
        ]
      }
    },
    {
      "type": "Feature",
      "properties": {
        "join_key": "BATULO-RW004-RT003",
        "NAMA_KELURAHAN": "Batulo",
        "NAMA_RW": "RW 004",
        "NAMA_RT": "RT 003"
      },
      "geometry": {
        "type": "Polygon",
        "coordinates": [
          [
            [122.615295428, -5.45978544799994],
            [122.615307544, -5.45979133299995],
            [122.616549984, -5.46039096599998],
            [122.6159153, -5.46094337699998],
            [122.61590623, -5.46093243999997],
            [122.61588864, -5.46094457],
            [122.61585972, -5.46097257999998],
            [122.61573921, -5.46105442999994],
            [122.615580795, -5.46116599299997],
            [122.615223401, -5.46070648499996],
            [122.614903524, -5.46091453499998],
            [122.614820304, -5.46088332799997],
            [122.614755289, -5.46080010799995],
            [122.614765691, -5.46075589699996],
            [122.614815103, -5.46071948799995],
            [122.614882719, -5.46068307999997],
            [122.61488532, -5.46058425599996],
            [122.61488792, -5.46055044799993],
            [122.614939933, -5.46054524699997],
            [122.615007549, -5.46051924099994],
            [122.615069964, -5.46037880699994],
            [122.615098571, -5.46028778499994],
            [122.615127178, -5.46021236699994],
            [122.615252397, -5.45976454699997],
            [122.615295428, -5.45978544799994]
          ]
        ]
      }
    },
    {
      "type": "Feature",
      "properties": {
        "join_key": "BATULO-RW005-RT001",
        "NAMA_KELURAHAN": "Batulo",
        "NAMA_RW": "RW 005",
        "NAMA_RT": "RT 001"
      },
      "geometry": {
        "type": "Polygon",
        "coordinates": [
          [
            [122.617917186, -5.46241866099996],
            [122.616955598, -5.46259806199994],
            [122.616943693, -5.462602943],
            [122.61684392, -5.46264384899998],
            [122.616546133, -5.46164839199998],
            [122.616848396, -5.46161960499995],
            [122.616839162, -5.46140491699992],
            [122.61774559, -5.461427692],
            [122.617917186, -5.46241866099996]
          ]
        ]
      }
    },
    {
      "type": "Feature",
      "properties": {
        "join_key": "BATULO-RW005-RT002",
        "NAMA_KELURAHAN": "Batulo",
        "NAMA_RW": "RW 005",
        "NAMA_RT": "RT 002"
      },
      "geometry": {
        "type": "Polygon",
        "coordinates": [
          [
            [122.616703359, -5.46269641699996],
            [122.616715706, -5.46269641699996],
            [122.61684392, -5.46264384899998],
            [122.616943693, -5.462602943],
            [122.617450957, -5.46423220599996],
            [122.61734605, -5.46426055999998],
            [122.61726005, -5.46426958],
            [122.61717416, -5.46428609999998],
            [122.61717227, -5.46428396299996],
            [122.61714415, -5.46425215999994],
            [122.61708087, -5.46415934999993],
            [122.61706846, -5.46409419],
            [122.61694262, -5.46395785999994],
            [122.61687445, -5.46385298999997],
            [122.61678531, -5.46378482999995],
            [122.61673288, -5.46369568999995],
            [122.61664374, -5.46358556999996],
            [122.61658082, -5.46348069999995],
            [122.61649168, -5.46337058999995],
            [122.61643925, -5.46327620999995],
            [122.61638157, -5.46318706999995],
            [122.61625572, -5.46301927999997],
            [122.61621894, -5.46294937999994],
            [122.61639272, -5.46285622999994],
            [122.61654468, -5.46277658999998],
            [122.6166643, -5.46272233999997],
            [122.61666804, -5.4627206399999],
            [122.61666722, -5.46271791999993],
            [122.61670445, -5.4626993],
            [122.616703359, -5.46269641699996]
          ]
        ]
      }
    },
    {
      "type": "Feature",
      "properties": {
        "join_key": "BATULO-RW005-RT003",
        "NAMA_KELURAHAN": "Batulo",
        "NAMA_RW": "RW 005",
        "NAMA_RT": "RT 003"
      },
      "geometry": {
        "type": "Polygon",
        "coordinates": [
          [
            [122.618245204, -5.46232963399996],
            [122.618229421, -5.46233178199998],
            [122.617919961, -5.46241814299998],
            [122.617917186, -5.46241866099996],
            [122.61774559, -5.461427692],
            [122.616839162, -5.46140491699992],
            [122.616829205, -5.46117340699995],
            [122.616877183, -5.46097669599993],
            [122.617052721, -5.46063359899994],
            [122.6171715, -5.46069092499994],
            [122.617473763, -5.46068612699998],
            [122.61790963, -5.46056112399998],
            [122.618745187, -5.460321493],
            [122.620375041, -5.46019207499995],
            [122.62037491, -5.46019501999998],
            [122.62037413, -5.46019862999998],
            [122.62037415, -5.46019865999997],
            [122.6203738, -5.46019882999997],
            [122.62037359, -5.46019895999996],
            [122.620373094, -5.46020948499995],
            [122.62036815, -5.46031427999998],
            [122.6205513, -5.46044227999994],
            [122.62073744, -5.46064152999998],
            [122.6208284, -5.46072047999998],
            [122.62081609, -5.46078048999993],
            [122.62079741, -5.46079791999995],
            [122.6207998, -5.46080038999997],
            [122.62079082, -5.46082932999997],
            [122.62075673, -5.46090797999994],
            [122.62071741, -5.46098924999997],
            [122.62067284, -5.46105479999994],
            [122.62064662, -5.46113345],
            [122.62064138, -5.46123045],
            [122.62064138, -5.46129337999997],
            [122.62065186, -5.46135629999998],
            [122.62065186, -5.46137726999998],
            [122.62061778, -5.46143233],
            [122.62056272, -5.4614533],
            [122.62051816, -5.46147427999995],
            [122.62053389, -5.46154768999997],
            [122.62056272, -5.46166565999994],
            [122.62060467, -5.46174955999991],
            [122.620639177, -5.46186686899995],
            [122.62064196, -5.46187632999994],
            [122.62056619, -5.46188362],
            [122.62038595, -5.46191708999993],
            [122.620387563, -5.46192838399998],
            [122.620222918, -5.46191437099998],
            [122.619956639, -5.46198633899996],
            [122.619306533, -5.46225981499992],
            [122.619295453, -5.46226009199995],
            [122.618634837, -5.46227660699998],
            [122.618245204, -5.46232963399996]
          ]
        ]
      }
    },
    {
      "type": "Feature",
      "properties": {
        "join_key": "BATULO-RW006-RT001",
        "NAMA_KELURAHAN": "Batulo",
        "NAMA_RW": "RW 006",
        "NAMA_RT": "RT 001"
      },
      "geometry": {
        "type": "Polygon",
        "coordinates": [
          [
            [122.617450957, -5.46423220599996],
            [122.616943693, -5.462602943],
            [122.616955598, -5.46259806199994],
            [122.617917186, -5.46241866099996],
            [122.617919961, -5.46241814299998],
            [122.618229421, -5.46233178199998],
            [122.618245204, -5.46232963399996],
            [122.61829734, -5.46265113799996],
            [122.618323728, -5.46305415499995],
            [122.618136613, -5.46348595999996],
            [122.617709606, -5.46391056699997],
            [122.617493704, -5.46413126699997],
            [122.617455234, -5.46423104999998],
            [122.617450957, -5.46423220599996]
          ]
        ]
      }
    },
    {
      "type": "Feature",
      "properties": {
        "join_key": "BATULO-RW006-RT002",
        "NAMA_KELURAHAN": "Batulo",
        "NAMA_RW": "RW 006",
        "NAMA_RT": "RT 002"
      },
      "geometry": {
        "type": "Polygon",
        "coordinates": [
          [
            [122.619444137, -5.46324992099994],
            [122.61942199, -5.46324884999997],
            [122.61920438, -5.46327768999994],
            [122.61908378, -5.46330652999995],
            [122.61898153, -5.46334848],
            [122.61897891, -5.46339041999996],
            [122.6189673, -5.46339391],
            [122.61884782, -5.46342974999995],
            [122.61877179, -5.4634664599999],
            [122.6187482, -5.46349528999997],
            [122.61875082, -5.46353723999996],
            [122.61875604, -5.46358070999997],
            [122.6187678, -5.46357479999995],
            [122.618777379, -5.46359187599995],
            [122.618474177, -5.46366599199996],
            [122.6185228, -5.46379706399996],
            [122.617501409, -5.46422101599995],
            [122.61750127, -5.46421865999997],
            [122.61750041, -5.46421883999994],
            [122.617455234, -5.46423104999998],
            [122.617493704, -5.46413126699997],
            [122.617709606, -5.46391056699997],
            [122.618136613, -5.46348595999996],
            [122.618323728, -5.46305415499995],
            [122.61829734, -5.46265113799996],
            [122.618245204, -5.46232963399996],
            [122.618634837, -5.46227660699998],
            [122.619295453, -5.46226009199995],
            [122.619373703, -5.46254048799995],
            [122.619215374, -5.462614854],
            [122.619260954, -5.46286673999998],
            [122.619342517, -5.46292911199995],
            [122.619349714, -5.46302746699996],
            [122.619444137, -5.46324992099994]
          ]
        ]
      }
    },
    {
      "type": "Feature",
      "properties": {
        "join_key": "BATULO-RW006-RT003",
        "NAMA_KELURAHAN": "Batulo",
        "NAMA_RW": "RW 006",
        "NAMA_RT": "RT 003"
      },
      "geometry": {
        "type": "Polygon",
        "coordinates": [
          [
            [122.620387563, -5.46192838399998],
            [122.62039028, -5.46194740999994],
            [122.62039208, -5.46194744999997],
            [122.62042986, -5.46212743999996],
            [122.620460733, -5.46221468899995],
            [122.62049016, -5.46229785],
            [122.62053735, -5.46244466999997],
            [122.62056672, -5.46251423999996],
            [122.620527274, -5.46253317199995],
            [122.6203792, -5.46260423999996],
            [122.62018519, -5.46268813999995],
            [122.62002265, -5.46281135999994],
            [122.61998857, -5.46290574999995],
            [122.61991778, -5.46302109999993],
            [122.61984437, -5.46305255999996],
            [122.61978931, -5.4630840199999],
            [122.61965823, -5.46314431999998],
            [122.61951665, -5.46323346],
            [122.61949735, -5.46325143999997],
            [122.61949145, -5.46325220999995],
            [122.619444137, -5.46324992099994],
            [122.619349714, -5.46302746699996],
            [122.619342517, -5.46292911199995],
            [122.619260954, -5.46286673999998],
            [122.619215374, -5.462614854],
            [122.619373703, -5.46254048799995],
            [122.619295453, -5.46226009199995],
            [122.619306533, -5.46225981499992],
            [122.619956639, -5.46198633899996],
            [122.620222918, -5.46191437099998],
            [122.620387563, -5.46192838399998]
          ]
        ]
      }
    }
  ]
}
